[{"OBJECT_NAME":"STARLINK-3369","OBJECT_ID":"2022-005AQ","EPOCH":"2026-03-09T22:22:22.044576","MEAN_MOTION":15.18998951,"ECCENTRICITY":0.00032386,"INCLINATION":53.2137,"RA_OF_ASC_NODE":280.745,"ARG_OF_PERICENTER":175.5204,"MEAN_ANOMALY":184.5822,"EPHEMERIS_TYPE":0,"CLASSIFICATION_TYPE":"U","NORAD_CAT_ID":51142,"ELEMENT_SET_NO":999,"REV_AT_EPOCH":22901,"BSTAR":0.0020382455,"MEAN_MOTION_DOT":0.00043116,"MEAN_MOTION_DDOT":0},{"OBJECT_NAME":"STARLINK-5728","OBJECT_ID":"2023-020V","EPOCH":"2026-03-09T22:00:01.999584","MEAN_MOTION":15.12999401,"ECCENTRICITY":0.00012068,"INCLINATION":43.0006,"RA_OF_ASC_NODE":2.7584,"ARG_OF_PERICENTER":279.492,"MEAN_ANOMALY":348.9005,"EPHEMERIS_TYPE":0,"CLASSIFICATION_TYPE":"U","NORAD_CAT_ID":55588,"ELEMENT_SET_NO":999,"REV_AT_EPOCH":573,"BSTAR":0.026730069,"MEAN_MOTION_DOT":0.00510293,"MEAN_MOTION_DDOT":0}]
